1 45727U 20037E   23123.52096943  .00003489  00000-0  33386-3 0  9996
2 45727  97.7542 298.8185 0013341  56.7061 303.5403 14.93785067154579
1 45727U 20037E   23124.52575096  .00003053  00000-0  29283-3 0  9996
2 45727  97.7537 299.8098 0013311  52.3713 307.8703 14.93789736154724
1 45727U 20037E   23124.92766207  .00002838  00000-0  27261-3 0  9990
2 45727  97.7530 300.2052 0013331  50.1092 310.1276 14.93791437154781
1 45727U 20037E   23125.73148304  .00002723  00000-0  26172-3 0  9995
2 45727  97.7532 300.9986 0013280  47.2616 312.9714 14.93795453154901
1 45727U 20037E   23125.73148304  .00002723  00000-0  26172-3 0  9995
2 45727  97.7532 300.9986 0013280  47.2616 312.9714 14.93795453154901
1 45727U 20037E   23126.46831720  .00002762  00000-0  26537-3 0  9995
2 45727  97.7528 301.7269 0013171  44.9884 315.2422 14.93799514155016
1 45727U 20037E   23127.47308734  .00002710  00000-0  26043-3 0  9996
2 45727  97.7528 302.7181 0013171  41.6443 318.5841 14.93805050155165
1 45727U 20037E   23127.47308734  .00002710  00000-0  26043-3 0  9996
2 45727  97.7528 302.7181 0013171  41.6443 318.5841 14.93805050155165
1 45727U 20037E   23128.74578565  .00003243  00000-0  31055-3 0  9999
2 45727  97.7532 303.9759 0012985  38.8382 321.3789 14.93815578155356
1 45727U 20037E   23129.48260864  .00003453  00000-0  33023-3 0  9991
2 45727  97.7532 304.7028 0012985  36.3852 323.8268 14.93821294155462
1 45727U 20037E   23130.48736212  .00003594  00000-0  34341-3 0  9998
2 45727  97.7532 305.6941 0012985  33.0399 327.1640 14.93829205155614
1 45727U 20037E   23130.75529543  .00003650  00000-0  34867-3 0  9991
2 45727  97.7565 305.9608 0012705  34.2604 325.9478 14.93831546155655
1 45727U 20037E   23130.75529543  .00003650  00000-0  34867-3 0  9991
2 45727  97.7565 305.9608 0012705  34.2604 325.9478 14.93831546155655
1 45727U 20037E   23131.42512607  .00003927  00000-0  37470-3 0  9999
2 45727  97.7573 306.6228 0012744  32.3905 327.8119 14.93837988155756
1 45727U 20037E   23131.96098906  .00004162  00000-0  39668-3 0  9992
2 45727  97.7573 307.1513 0012643  30.8040 329.3952 14.93843234155832
1 45727U 20037E   23132.02797123  .00004182  00000-0  39860-3 0  9993
2 45727  97.7573 307.2174 0012639  30.6127 329.5825 14.93843839155848
1 45727U 20037E   23132.76478012  .00004110  00000-0  39182-3 0  9995
2 45727  97.7572 307.9444 0012540  28.3464 331.8418 14.93849629155952
1 45727U 20037E   23133.03271025  .00004009  00000-0  38225-3 0  9995
2 45727  97.7577 308.2092 0012554  27.4108 332.7738 14.93851192155997
1 45727U 20037E   23133.43460517  .00004091  00000-0  38995-3 0  9990
2 45727  97.7586 308.6059 0012565  26.5481 333.6409 14.93855002156057
1 45727U 20037E   23133.76951561  .00004096  00000-0  39040-3 0  9997
2 45727  97.7596 308.9369 0012621  25.5124 334.6725 14.93857933156104
1 45727U 20037E   23134.03744374  .00004069  00000-0  38783-3 0  9993
2 45727  97.7594 309.2013 0012613  24.6867 335.4945 14.93859998156147
1 45727U 20037E   23134.43933564  .00004200  00000-0  40010-3 0  9991
2 45727  97.7593 309.5980 0012616  23.6090 336.5725 14.93864028156207
1 45727U 20037E   23134.70726247  .00004241  00000-0  40392-3 0  9997
2 45727  97.7593 309.8623 0012604  22.7809 337.3978 14.93866569156244
1 45727U 20037E   23135.04217062  .00004218  00000-0  40169-3 0  9991
2 45727  97.7592 310.1925 0012650  21.7753 338.3994 14.93869371156299
1 45727U 20037E   23135.44406063  .00004433  00000-0  42186-3 0  9996
2 45727  97.7584 310.5889 0012787  20.7368 339.4414 14.93873851156359
1 45727U 20037E   23136.04689135  .00004299  00000-0  40922-3 0  9992
2 45727  97.7582 311.1832 0012876  18.6398 341.5233 14.93878323156442
1 45727U 20037E   23136.44877921  .00004118  00000-0  39224-3 0  9991
2 45727  97.7578 311.5801 0012744  17.8289 342.3348 14.93880960156504
1 45727U 20037E   23136.71670387  .00004085  00000-0  38914-3 0  9996
2 45727  97.7577 311.8445 0012721  16.9006 343.2632 14.93883031156544
1 45727U 20037E   23137.45349734  .00002037  00000-0  19676-3 0  9996
2 45727  97.7560 312.5706 0012429  13.6682 346.4872 14.93880662156653
1 45727U 20037E   23137.92236418  .00001870  00000-0  18108-3 0  9995
2 45727  97.7559 313.0334 0012395  12.0063 348.1450 14.93882813156721
1 45727U 20037E   23138.45821160  .00001598  00000-0  15553-3 0  9996
2 45727  97.7558 313.5623 0012349  10.1240 350.0227 14.93884479156804
1 45727U 20037E   23138.52519244  .00001579  00000-0  15380-3 0  9998
2 45727  97.7558 313.6284 0012338   9.8730 350.2730 14.93884736156813
1 45727U 20037E   23138.92707747  .00001554  00000-0  15143-3 0  9999
2 45727  97.7558 314.0250 0012286   8.4421 351.7003 14.93886363156878
1 45727U 20037E   23139.46292382  .00001613  00000-0  15698-3 0  9994
2 45727  97.7557 314.5539 0012232   6.5734 353.5644 14.93888441156958
1 45727U 20037E   23139.46292382  .00001613  00000-0  15698-3 0  9994
2 45727  97.7557 314.5539 0012232   6.5734 353.5644 14.93888441156958
1 45727U 20037E   23140.73555452  .00002742  00000-0  26294-3 0  9994
2 45727  97.7558 315.8100 0012113   2.0964 358.0304 14.93897018157146
1 45727U 20037E   23140.73555452  .00002742  00000-0  26294-3 0  9994
2 45727  97.7558 315.8100 0012113   2.0964 358.0304 14.93897018157146
1 45727U 20037E   23141.47233853  .00002754  00000-0  26402-3 0  9998
2 45727  97.7558 316.5371 0012043 359.5825   0.5382 14.93900290157256
1 45727U 20037E   23141.74025943  .00002815  00000-0  26978-3 0  9993
2 45727  97.7559 316.8016 0012010 358.6678   1.4508 14.93901747157298
1 45727U 20037E   23141.74025943  .00002815  00000-0  26978-3 0  9993
2 45727  97.7559 316.8016 0012010 358.6678   1.4508 14.93901747157298
1 45727U 20037E   23142.47704002  .00003173  00000-0  30333-3 0  9992
2 45727  97.7559 317.5288 0011936 356.2137   3.8990 14.93906986157401
1 45727U 20037E   23142.74495961  .00003252  00000-0  31076-3 0  9996
2 45727  97.7560 317.7932 0011904 355.3344   4.7763 14.93908830157448
1 45727U 20037E   23142.74495961  .00003252  00000-0  31076-3 0  9996
2 45727  97.7560 317.7932 0011904 355.3344   4.7763 14.93908830157448
1 45727U 20037E   23143.74965606  .00003090  00000-0  29547-3 0  9995
2 45727  97.7561 318.7850 0011792 352.0880   8.0152 14.93914358157590
1 45727U 20037E   23143.74965606  .00003090  00000-0  29547-3 0  9995
2 45727  97.7561 318.7850 0011792 352.0880   8.0152 14.93914358157590
1 45727U 20037E   23144.41945153  .00003088  00000-0  29525-3 0  9998
2 45727  97.7563 319.4461 0011725 349.9320  10.1663 14.93918313157695
1 45727U 20037E   23146.02695471  .00002800  00000-0  26823-3 0  9991
2 45727  97.7568 321.0330 0011557 344.8102  15.2769 14.93926177157936
1 45727U 20037E   23146.42882905  .00002725  00000-0  26116-3 0  9996
2 45727  97.7569 321.4297 0011518 343.4837  16.6006 14.93928058157995
1 45727U 20037E   23146.89768165  .00002710  00000-0  25973-3 0  9992
2 45727  97.7570 321.8926 0011473 342.0271  18.0541 14.93930588158067
1 45727U 20037E   23147.03163942  .00002693  00000-0  25816-3 0  9997
2 45727  97.7570 322.0248 0011462 341.5866  18.4937 14.93931242158082
1 45727U 20037E   23147.43351242  .00002563  00000-0  24594-3 0  9991
2 45727  97.7570 322.4216 0011422 340.2306  19.8470 14.93932905158143
1 45727U 20037E   23148.03632061  .00002624  00000-0  25168-3 0  9995
2 45727  97.7571 323.0168 0011375 338.2267  21.8468 14.93936386158234
1 45727U 20037E   23148.23725646  .00002796  00000-0  26777-3 0  9996
2 45727  97.7570 323.2152 0011373 337.6083  22.4639 14.93937899158265
1 45727U 20037E   23148.43819186  .00002819  00000-0  26995-3 0  9999
2 45727  97.7570 323.4136 0011348 336.7944  23.2762 14.93939209158293
1 45727U 20037E   23149.04099746  .00002923  00000-0  27964-3 0  9992
2 45727  97.7571 324.0087 0011305 334.7100  25.3565 14.93943062158387
1 45727U 20037E   23149.44286722  .00002726  00000-0  26113-3 0  9994
2 45727  97.7570 324.4056 0011302 333.3386  26.7251 14.93944761158445
1 45727U 20037E   23150.38056098  .00002292  00000-0  22042-3 0  9995
2 45727  97.7569 325.3313 0011249 329.9004  30.1568 14.93948766158581
1 45727U 20037E   23150.44753904  .00002348  00000-0  22567-3 0  9996
2 45727  97.7569 325.3975 0011261 329.7452  30.3116 14.93949322158595
1 45727U 20037E   23151.45220729  .00002142  00000-0  20633-3 0  9996
2 45727  97.7566 326.3895 0011275 326.1272  33.9226 14.93954298158746
1 45727U 20037E   23151.45220729  .00002142  00000-0  20633-3 0  9996
2 45727  97.7566 326.3895 0011275 326.1272  33.9226 14.93954298158746
1 45727U 20037E   23151.78709573  .00002157  00000-0  20778-3 0  9997
2 45727  97.7566 326.7201 0011254 324.8713  35.1763 14.93956242158799
1 45727U 20037E   23152.45687204  .00002154  00000-0  20747-3 0  9991
2 45727  97.7565 327.3812 0011206 322.2263  37.8169 14.93959627158892
1 45727U 20037E   23152.45687204  .00002154  00000-0  20747-3 0  9991
2 45727  97.7565 327.3812 0011206 322.2263  37.8169 14.93959627158892
1 45727U 20037E   23152.92571464  .00002212  00000-0  21289-3 0  9990
2 45727  97.7564 327.8440 0011198 320.4355  39.6047 14.93962112158961
1 45727U 20037E   23153.46153433  .00001969  00000-0  19004-3 0  9992
2 45727  97.7563 328.3730 0011185 318.3763  41.6605 14.93963682159049
1 45727U 20037E   23153.46153433  .00001969  00000-0  19004-3 0  9992
2 45727  97.7563 328.3730 0011185 318.3763  41.6605 14.93963682159049
1 45727U 20037E   23153.72944369  .00002254  00000-0  21677-3 0  9994
2 45727  97.7564 328.6377 0011206 317.4937  42.5414 14.93965786159086
1 45727U 20037E   23154.46619407  .00002012  00000-0  19409-3 0  9990
2 45727  97.7563 329.3649 0011181 314.6079  45.4228 14.93968028159192
1 45727U 20037E   23154.73410285  .00002060  00000-0  19854-3 0  9990
2 45727  97.7563 329.6294 0011165 313.5248  46.5043 14.93969238159235
1 45727U 20037E   23154.73410285  .00002060  00000-0  19854-3 0  9990
2 45727  97.7563 329.6294 0011165 313.5248  46.5043 14.93969238159235
1 45727U 20037E   23155.53782835  .00001990  00000-0  19203-3 0  9991
2 45727  97.7562 330.4225 0011109 310.3884  49.6366 14.93972152159351
